[{"OBJECT_NAME":"ASNARO","OBJECT_ID":"2014-070A","EPOCH":"2026-03-09T22:08:57.436800","MEAN_MOTION":15.19795737,"ECCENTRICITY":0.00075314,"INCLINATION":97.3509,"RA_OF_ASC_NODE":147.6802,"ARG_OF_PERICENTER":140.927,"MEAN_ANOMALY":219.2511,"EPHEMERIS_TYPE":0,"CLASSIFICATION_TYPE":"U","NORAD_CAT_ID":40298,"ELEMENT_SET_NO":999,"REV_AT_EPOCH":62893,"BSTAR":0.00030880192,"MEAN_MOTION_DOT":6.55e-5,"MEAN_MOTION_DDOT":0},{"OBJECT_NAME":"STARLINK-6092","OBJECT_ID":"2023-046AE","EPOCH":"2026-03-09T22:00:01.999584","MEAN_MOTION":15.11672663,"ECCENTRICITY":0.00015546,"INCLINATION":43,"RA_OF_ASC_NODE":144.9348,"ARG_OF_PERICENTER":278.5083,"MEAN_ANOMALY":89.5699,"EPHEMERIS_TYPE":0,"CLASSIFICATION_TYPE":"U","NORAD_CAT_ID":56121,"ELEMENT_SET_NO":999,"REV_AT_EPOCH":572,"BSTAR":0.044774283,"MEAN_MOTION_DOT":0.00833043,"MEAN_MOTION_DDOT":0}]
